CCSDS_OMM_VERS = 2.0
CREATION_DATE  = 
ORIGINATOR     = 

OBJECT_NAME    = SL-14 R/B
OBJECT_ID      = 1986-046B
CENTER_NAME    = EARTH
REF_FRAME      = TEME
TIME_SYSTEM    = UTC
MEAN_ELEMENT_THEORY = SGP/SGP4

EPOCH          = 2026-02-11T14:32:40.372512
MEAN_MOTION    = 14.85564972
ECCENTRICITY   = .00220048
INCLINATION    = 82.4810
RA_OF_ASC_NODE = 104.8322
ARG_OF_PERICENTER = 317.0570
MEAN_ANOMALY   = 42.8927

EPHEMERIS_TYPE = 0
CLASSIFICATION_TYPE = U
NORAD_CAT_ID   = 16792
ELEMENT_SET_NO = 999
REV_AT_EPOCH   = 12253
BSTAR          = .50070088E-4
MEAN_MOTION_DOT = .458E-5
MEAN_MOTION_DDOT = 0

CCSDS_OMM_VERS = 2.0
CREATION_DATE  = 
ORIGINATOR     = 

OBJECT_NAME    = SL-14 R/B
OBJECT_ID      = 1986-055B
CENTER_NAME    = EARTH
REF_FRAME      = TEME
TIME_SYSTEM    = UTC
MEAN_ELEMENT_THEORY = SGP/SGP4

EPOCH          = 2026-02-11T06:12:12.912192
MEAN_MOTION    = 14.85615371
ECCENTRICITY   = .00202188
INCLINATION    = 82.5233
RA_OF_ASC_NODE = 151.5094
ARG_OF_PERICENTER = 62.0190
MEAN_ANOMALY   = 320.5762

EPHEMERIS_TYPE = 0
CLASSIFICATION_TYPE = U
NORAD_CAT_ID   = 16882
ELEMENT_SET_NO = 999
REV_AT_EPOCH   = 11544
BSTAR          = .6758134E-4
MEAN_MOTION_DOT = .611E-5
MEAN_MOTION_DDOT = 0

CCSDS_OMM_VERS = 2.0
CREATION_DATE  = 
ORIGINATOR     = 

OBJECT_NAME    = AJISAI (EGS)
OBJECT_ID      = 1986-061A
CENTER_NAME    = EARTH
REF_FRAME      = TEME
TIME_SYSTEM    = UTC
MEAN_ELEMENT_THEORY = SGP/SGP4

EPOCH          = 2026-02-11T14:53:15.594432
MEAN_MOTION    = 12.44515360
ECCENTRICITY   = .00112397
INCLINATION    = 50.0078
RA_OF_ASC_NODE = 173.5106
ARG_OF_PERICENTER = 219.8185
MEAN_ANOMALY   = 230.0611

EPHEMERIS_TYPE = 0
CLASSIFICATION_TYPE = U
NORAD_CAT_ID   = 16908
ELEMENT_SET_NO = 999
REV_AT_EPOCH   = 46475
BSTAR          = -.10600786E-4
MEAN_MOTION_DOT = -.99E-6
MEAN_MOTION_DDOT = 0

CCSDS_OMM_VERS = 2.0
CREATION_DATE  = 
ORIGINATOR     = 

OBJECT_NAME    = COSMOS 1812
OBJECT_ID      = 1987-003A
CENTER_NAME    = EARTH
REF_FRAME      = TEME
TIME_SYSTEM    = UTC
MEAN_ELEMENT_THEORY = SGP/SGP4

EPOCH          = 2026-02-11T14:58:30.683136
MEAN_MOTION    = 15.96926834
ECCENTRICITY   = .00019111
INCLINATION    = 82.4762
RA_OF_ASC_NODE = 225.2363
ARG_OF_PERICENTER = 309.4292
MEAN_ANOMALY   = 50.6815

EPHEMERIS_TYPE = 0
CLASSIFICATION_TYPE = U
NORAD_CAT_ID   = 17295
ELEMENT_SET_NO = 999
REV_AT_EPOCH   = 14029
BSTAR          = .79045535E-3
MEAN_MOTION_DOT = .337793E-2
MEAN_MOTION_DDOT = .44399119E-4

CCSDS_OMM_VERS = 2.0
CREATION_DATE  = 
ORIGINATOR     = 

OBJECT_NAME    = SL-14 R/B
OBJECT_ID      = 1987-024B
CENTER_NAME    = EARTH
REF_FRAME      = TEME
TIME_SYSTEM    = UTC
MEAN_ELEMENT_THEORY = SGP/SGP4

EPOCH          = 2026-02-11T13:57:31.126464
MEAN_MOTION    = 14.86107097
ECCENTRICITY   = .00179161
INCLINATION    = 82.5287
RA_OF_ASC_NODE = 117.3029
ARG_OF_PERICENTER = 352.1533
MEAN_ANOMALY   = 7.9400

EPHEMERIS_TYPE = 0
CLASSIFICATION_TYPE = U
NORAD_CAT_ID   = 17567
ELEMENT_SET_NO = 999
REV_AT_EPOCH   = 8425
BSTAR          = .51023818E-4
MEAN_MOTION_DOT = .472E-5
MEAN_MOTION_DDOT = 0

CCSDS_OMM_VERS = 2.0
CREATION_DATE  = 
ORIGINATOR     = 

OBJECT_NAME    = COSMOS 1833
OBJECT_ID      = 1987-027A
CENTER_NAME    = EARTH
REF_FRAME      = TEME
TIME_SYSTEM    = UTC
MEAN_ELEMENT_THEORY = SGP/SGP4

EPOCH          = 2026-02-11T09:14:23.592192
MEAN_MOTION    = 14.13056964
ECCENTRICITY   = .00249136
INCLINATION    = 70.9218
RA_OF_ASC_NODE = 21.3005
ARG_OF_PERICENTER = 249.8538
MEAN_ANOMALY   = 109.9903

EPHEMERIS_TYPE = 0
CLASSIFICATION_TYPE = U
NORAD_CAT_ID   = 17589
ELEMENT_SET_NO = 999
REV_AT_EPOCH   = 660
BSTAR          = .41159617E-4
MEAN_MOTION_DOT = .29E-6
MEAN_MOTION_DDOT = 0

CCSDS_OMM_VERS = 2.0
CREATION_DATE  = 
ORIGINATOR     = 

OBJECT_NAME    = SL-16 R/B
OBJECT_ID      = 1987-027B
CENTER_NAME    = EARTH
REF_FRAME      = TEME
TIME_SYSTEM    = UTC
MEAN_ELEMENT_THEORY = SGP/SGP4

EPOCH          = 2026-02-11T05:21:14.885280
MEAN_MOTION    = 14.17163024
ECCENTRICITY   = .00049339
INCLINATION    = 71.0048
RA_OF_ASC_NODE = 332.2655
ARG_OF_PERICENTER = 189.3143
MEAN_ANOMALY   = 170.7891

EPHEMERIS_TYPE = 0
CLASSIFICATION_TYPE = U
NORAD_CAT_ID   = 17590
ELEMENT_SET_NO = 999
REV_AT_EPOCH   = 1159
BSTAR          = -.61796168E-4
MEAN_MOTION_DOT = -.173E-5
MEAN_MOTION_DDOT = 0

CCSDS_OMM_VERS = 2.0
CREATION_DATE  = 
ORIGINATOR     = 

OBJECT_NAME    = SL-14 R/B
OBJECT_ID      = 1987-038B
CENTER_NAME    = EARTH
REF_FRAME      = TEME
TIME_SYSTEM    = UTC
MEAN_ELEMENT_THEORY = SGP/SGP4

EPOCH          = 2026-02-11T05:25:51.635712
MEAN_MOTION    = 14.85343591
ECCENTRICITY   = .00177131
INCLINATION    = 82.5040
RA_OF_ASC_NODE = 321.7317
ARG_OF_PERICENTER = 250.9306
MEAN_ANOMALY   = 108.9992

EPHEMERIS_TYPE = 0
CLASSIFICATION_TYPE = U
NORAD_CAT_ID   = 17912
ELEMENT_SET_NO = 999
REV_AT_EPOCH   = 7530
BSTAR          = .63289515E-4
MEAN_MOTION_DOT = .569E-5
MEAN_MOTION_DDOT = 0

CCSDS_OMM_VERS = 2.0
CREATION_DATE  = 
ORIGINATOR     = 

OBJECT_NAME    = COSMOS 1844
OBJECT_ID      = 1987-041A
CENTER_NAME    = EARTH
REF_FRAME      = TEME
TIME_SYSTEM    = UTC
MEAN_ELEMENT_THEORY = SGP/SGP4

EPOCH          = 2026-02-11T12:26:59.074656
MEAN_MOTION    = 14.14543259
ECCENTRICITY   = .0028914
INCLINATION    = 70.8980
RA_OF_ASC_NODE = 89.3801
ARG_OF_PERICENTER = 59.7898
MEAN_ANOMALY   = 300.6081

EPHEMERIS_TYPE = 0
CLASSIFICATION_TYPE = U
NORAD_CAT_ID   = 17973
ELEMENT_SET_NO = 999
REV_AT_EPOCH   = 99988
BSTAR          = .25027109E-3
MEAN_MOTION_DOT = .434E-5
MEAN_MOTION_DDOT = 0

CCSDS_OMM_VERS = 2.0
CREATION_DATE  = 
ORIGINATOR     = 

OBJECT_NAME    = SL-14 R/B
OBJECT_ID      = 1987-055B
CENTER_NAME    = EARTH
REF_FRAME      = TEME
TIME_SYSTEM    = UTC
MEAN_ELEMENT_THEORY = SGP/SGP4

EPOCH          = 2026-02-11T08:13:17.041440
MEAN_MOTION    = 14.85596533
ECCENTRICITY   = .00222924
INCLINATION    = 82.5000
RA_OF_ASC_NODE = 13.8583
ARG_OF_PERICENTER = 99.8434
MEAN_ANOMALY   = 260.5300

EPHEMERIS_TYPE = 0
CLASSIFICATION_TYPE = U
NORAD_CAT_ID   = 18153
ELEMENT_SET_NO = 999
REV_AT_EPOCH   = 6602
BSTAR          = .72372439E-4
MEAN_MOTION_DOT = .653E-5
MEAN_MOTION_DDOT = 0

CCSDS_OMM_VERS = 2.0
CREATION_DATE  = 
ORIGINATOR     = 

OBJECT_NAME    = COSMOS 1867
OBJECT_ID      = 1987-060A
CENTER_NAME    = EARTH
REF_FRAME      = TEME
TIME_SYSTEM    = UTC
MEAN_ELEMENT_THEORY = SGP/SGP4

EPOCH          = 2026-02-10T08:02:19.117536
MEAN_MOTION    = 14.31498574
ECCENTRICITY   = .00141196
INCLINATION    = 65.0113
RA_OF_ASC_NODE = 23.3084
ARG_OF_PERICENTER = 276.6645
MEAN_ANOMALY   = 83.2833

EPHEMERIS_TYPE = 0
CLASSIFICATION_TYPE = U
NORAD_CAT_ID   = 18187
ELEMENT_SET_NO = 999
REV_AT_EPOCH   = 1602
BSTAR          = .30035454E-4
MEAN_MOTION_DOT = -.2E-6
MEAN_MOTION_DDOT = 0

CCSDS_OMM_VERS = 2.0
CREATION_DATE  = 
ORIGINATOR     = 

OBJECT_NAME    = SL-14 R/B
OBJECT_ID      = 1988-001B
CENTER_NAME    = EARTH
REF_FRAME      = TEME
TIME_SYSTEM    = UTC
MEAN_ELEMENT_THEORY = SGP/SGP4

EPOCH          = 2026-02-11T12:54:53.137728
MEAN_MOTION    = 14.85495750
ECCENTRICITY   = .00172485
INCLINATION    = 82.5109
RA_OF_ASC_NODE = 219.9569
ARG_OF_PERICENTER = 329.1377
MEAN_ANOMALY   = 30.8824

EPHEMERIS_TYPE = 0
CLASSIFICATION_TYPE = U
NORAD_CAT_ID   = 18749
ELEMENT_SET_NO = 999
REV_AT_EPOCH   = 3814
BSTAR          = .59345023E-4
MEAN_MOTION_DOT = .537E-5
MEAN_MOTION_DDOT = 0

