SL-14 R/B               
1 16792U 86046B   26042.60602283  .00000458  00000+0  50070-4 0  9992
2 16792  82.4810 104.8322 0022004 317.0570  42.8927 14.85564972122537
SL-14 R/B               
1 16882U 86055B   26042.25848278  .00000611  00000+0  67581-4 0  9995
2 16882  82.5233 151.5094 0020218  62.0190 320.5762 14.85615371115447
AJISAI (EGS)            
1 16908U 86061A   26042.62031938 -.00000099  00000+0 -10601-4 0  9992
2 16908  50.0078 173.5106 0011239 219.8185 230.0611 12.44515360464759
COSMOS 1812             
1 17295U 87003A   26042.62396624  .00337793  44399-4  79046-3 0  9998
2 17295  82.4762 225.2363 0001911 309.4292  50.6815 15.96926834140293
SL-14 R/B               
1 17567U 87024B   26042.58161026  .00000472  00000+0  51024-4 0  9998
2 17567  82.5287 117.3029 0017916 352.1533   7.9400 14.86107097 84251
COSMOS 1833             
1 17589U 87027A   26042.38499528  .00000029  00000+0  41160-4 0  9992
2 17589  70.9218  21.3005 0024913 249.8538 109.9903 14.13056964  6600
SL-16 R/B               
1 17590U 87027B   26042.22308895 -.00000173  00000+0 -61796-4 0  9992
2 17590  71.0048 332.2655 0004933 189.3143 170.7891 14.17163024 11596
SL-14 R/B               
1 17912U 87038B   26042.22629208  .00000569  00000+0  63290-4 0  9994
2 17912  82.5040 321.7317 0017713 250.9306 108.9992 14.85343591 75305
COSMOS 1844             
1 17973U 87041A   26042.51873929  .00000434  00000+0  25027-3 0  9994
2 17973  70.8980  89.3801 0028914  59.7898 300.6081 14.14543259999889
SL-14 R/B               
1 18153U 87055B   26042.34255835  .00000653  00000+0  72372-4 0  9990
2 18153  82.5000  13.8583 0022292  99.8434 260.5300 14.85596533 66026
COSMOS 1867             
1 18187U 87060A   26041.33494349 -.00000020  00000+0  30035-4 0  9995
2 18187  65.0113  23.3084 0014119 276.6645  83.2833 14.31498574 16027
SL-14 R/B               
1 18749U 88001B   26042.53811502  .00000537  00000+0  59345-4 0  9999
2 18749  82.5109 219.9569 0017248 329.1377  30.8824 14.85495750 38140
